NORAD_CAT_ID,OBJECT_NAME,OBJECT_TYPE,EPOCH,MEAN_MOTION,ECCENTRICITY,INCLINATION,RA_OF_ASC_NODE,ARG_OF_PERICENTER,MEAN_ANOMALY,BSTAR,MEAN_MOTION_DOT,MEAN_MOTION_DDOT,TLE_LINE0,TLE_LINE1,TLE_LINE2,SEMIMAJOR_AXIS,PERIOD,APOGEE,PERIGEE,DECAYED
52868.0,STARLINK-4261,PAYLOAD,2022-10-03 06:00:00,15.08855173,0.0002006999999999,53.2171,251.0207,41.6478,255.1907,-0.00015786,-2.801e-05,0.0,0 STARLINK-4261,1 52868U 22062AQ  22276.25001157 -.00002801  00000-0 -15786-3 0  9994,2 52868  53.2171 251.0207 0002007  41.6478 255.1907 15.08855173 17196,6917.834,95.437,541.087,538.311,0.0
52868.0,STARLINK-4261,PAYLOAD,2022-10-03 14:00:01,15.08863532,0.0001924,53.217,249.5236,40.4406,268.0104,-0.0017484,-0.00028025,0.0,0 STARLINK-4261,1 52868U 22062AQ  22276.58334491 -.00028025  00000-0 -17484-2 0  9992,2 52868  53.2170 249.5236 0001924  40.4406 268.0104 15.08863532  1300,6917.808000000001,95.436,541.004,538.342,0.0
52868.0,STARLINK-4261,PAYLOAD,2022-10-03 22:00:00,15.08859902,0.0001844,53.2172,248.0262,46.3362,273.7283,-0.00042523,-7.053e-05,0.0,0 STARLINK-4261,1 52868U 22062AQ  22276.91667824 -.00007053  00000-0 -42523-3 0  9999,2 52868  53.2172 248.0262 0001844  46.3362 273.7283 15.08859902  1309,6917.82,95.436,540.96,538.409,0.0
52868.0,STARLINK-4261,PAYLOAD,2022-10-04 14:00:01,15.08856995,0.0001896999999999,53.2172,245.0343,40.2003,303.0753,-0.0035946,-0.00057071,0.0,0 STARLINK-4261,1 52868U 22062AQ  22277.58334491 -.00057071  00000-0 -35946-2 0  9999,2 52868  53.2172 245.0343 0001897  40.2003 303.0753 15.08856995  1307,6917.828,95.436,541.006,538.381,0.0
52868.0,STARLINK-4261,PAYLOAD,2022-10-04 16:00:00,15.08826407,0.0001808,53.2174,244.6598,42.1952,33.9883,-6.0395e-05,-1.249e-05,0.0,0 STARLINK-4261,1 52868U 22062AQ  22277.66667824 -.00001249  00000-0 -60395-4 0  9991,2 52868  53.2174 244.6598 0001808  42.1952  33.9883 15.08826407 17408,6917.922,95.438,541.038,538.536,0.0
52868.0,STARLINK-4261,PAYLOAD,2022-10-04 22:00:00,15.08827179,0.0001753,53.2175,243.5372,44.4149,310.4479,0.0019794,0.00031344,0.0,0 STARLINK-4261,1 52868U 22062AQ  22277.91667824  .00031344  00000-0  19794-2 0  9991,2 52868  53.2175 243.5372 0001753  44.4149 310.4479 15.08827179  1302,6917.92,95.438,540.997,538.572,0.0
52868.0,STARLINK-4261,PAYLOAD,2022-10-05 14:00:01,15.08821076,0.0001742,53.2175,240.5451,36.2158,341.8853,-0.00067165,-0.00010956,0.0,0 STARLINK-4261,1 52868U 22062AQ  22278.58335648 -.00010956  00000-0 -67165-3 0  9995,2 52868  53.2175 240.5451 0001742  36.2158 341.8853 15.08821076  1308,6917.938,95.439,541.008,538.5980000000002,0.0
52868.0,STARLINK-4261,PAYLOAD,2022-10-05 22:00:00,15.08823777,0.0001644,53.2178,239.0482,41.7773,347.825,0.0021087,0.00033417,0.0,0 STARLINK-4261,1 52868U 22062AQ  22278.91667824  .00033417  00000-0  21087-2 0  9993,2 52868  53.2178 239.0482 0001644  41.7773 347.8250 15.08823777 17598,6917.93,95.439,540.932,538.658,0.0
52868.0,STARLINK-4261,PAYLOAD,2022-10-06 14:00:01,15.08853615,0.0001835,53.2178,236.0559,44.107,8.691,-0.0034915999999999,-0.00055451,0.0,0 STARLINK-4261,1 52868U 22062AQ  22279.58334491 -.00055451  00000-0 -34916-2 0  9997,2 52868  53.2178 236.0559 0001835  44.1070   8.6910 15.08853615  1300,6917.839,95.437,540.9730000000002,538.434,0.0
52868.0,STARLINK-4261,PAYLOAD,2022-10-06 22:42:55,15.08838273,0.0001795,53.2181,234.4258,49.895,176.3979,0.0012216,0.00019206,0.0,0 STARLINK-4261,1 52868U 22062AQ  22279.94646991  .00019206  00000-0  12216-2 0  9993,2 52868  53.2181 234.4258 0001795  49.8950 176.3979 15.08838273  1307,6917.886,95.438,540.992,538.509,0.0
52868.0,STARLINK-4261,PAYLOAD,2022-10-07 00:00:00,15.08848617,0.0001817,53.2181,234.1856,48.5287,108.7494,-2.5747e-05,-6.98e-06,0.0,0 STARLINK-4261,1 52868U 22062AQ  22280.00001157 -.00000698  00000-0 -25747-4 0  9993,2 52868  53.2181 234.1856 0001817  48.5287 108.7494 15.08848617 17763,6917.854,95.437,540.976,538.462,0.0
52868.0,STARLINK-4261,PAYLOAD,2022-10-07 14:00:01,15.08827412,0.0001638,53.218,231.5668,43.0047,44.5807,-0.0013327,-0.00021428,0.0,0 STARLINK-4261,1 52868U 22062AQ  22280.58334491 -.00021428  00000-0 -13327-2 0  9999,2 52868  53.2180 231.5668 0001638  43.0047  44.5807 15.08827412  1307,6917.919,95.438,540.9169999999998,538.651,0.0
52868.0,STARLINK-4261,PAYLOAD,2022-10-07 22:00:00,15.08844391,0.0001543,53.2182,230.0703,45.8591,53.2912,-0.00051012,-8.398e-05,0.0,0 STARLINK-4261,1 52868U 22062AQ  22280.91667824 -.00008398  00000-0 -51012-3 0  9990,2 52868  53.2182 230.0703 0001543  45.8591  53.2912 15.08844391  1301,6917.8669999999975,95.437,540.799,538.665,0.0
52868.0,STARLINK-4261,PAYLOAD,2022-10-08 14:00:01,15.08820983,0.0001561999999999,53.2179,227.0779,44.8761,77.4543,0.00018692,2.687e-05,0.0,0 STARLINK-4261,1 52868U 22062AQ  22281.58334491  .00002687  00000-0  18692-3 0  9995,2 52868  53.2179 227.0779 0001562  44.8761  77.4543 15.08820983  1304,6917.939,95.439,540.884,538.7230000000002,0.0
52868.0,STARLINK-4261,PAYLOAD,2022-10-08 22:00:00,15.08848475,0.0001541999999999,53.2181,225.5815,48.6904,85.2388,0.00028791,4.298e-05,0.0,0 STARLINK-4261,1 52868U 22062AQ  22281.91667824  .00004298  00000-0  28791-3 0  9992,2 52868  53.2181 225.5815 0001542  48.6904  85.2388 15.08848475  1300,6917.854,95.437,540.786,538.653,0.0
52868.0,STARLINK-4261,PAYLOAD,2022-10-09 06:00:00,15.08827734,0.0001691,53.218,224.0868,42.0408,103.5018,0.0014475999999999,0.00022818,0.0,0 STARLINK-4261,1 52868U 22062AQ  22282.25001157  .00022818  00000-0  14476-2 0  9993,2 52868  53.2180 224.0868 0001691  42.0408 103.5018 15.08827734 18108,6917.918000000002,95.438,540.953,538.613,0.0
52868.0,STARLINK-4261,PAYLOAD,2022-10-09 14:00:01,15.08845269,0.0001564999999999,53.2179,222.58900000000003,47.5092,109.6252,-0.0016412,-0.00026317,0.0,0 STARLINK-4261,1 52868U 22062AQ  22282.58334491 -.00026317  00000-0 -16412-2 0  9991,2 52868  53.2179 222.5890 0001565  47.5092 109.6252 15.08845269  1307,6917.864000000001,95.437,540.812,538.6469999999998,0.0
52868.0,STARLINK-4261,PAYLOAD,2022-10-10 00:00:00,15.08857095,0.0001689,53.2179,220.7192,51.9013,209.728,-0.0036134,-0.00057365,0.0,0 STARLINK-4261,1 52868U 22062AQ  22283.00001157 -.00057365  00000-0 -36134-2 0  9999,2 52868  53.2179 220.7192 0001689  51.9013 209.7280 15.08857095  1304,6917.828,95.436,540.862,538.525,0.0
52868.0,STARLINK-4261,PAYLOAD,2022-10-10 08:00:01,15.08801287,0.0001756,53.2174,219.2243,45.8144,227.4084,0.0037657,0.00060091,0.0,0 STARLINK-4261,1 52868U 22062AQ  22283.33334491  .00060091  00000-0  37657-2 0  9994,2 52868  53.2174 219.2243 0001756  45.8144 227.4084 15.08801287 18265,6917.999,95.44,541.0790000000002,538.649,0.0
52868.0,STARLINK-4261,PAYLOAD,2022-10-10 14:00:01,15.08895088,0.0001610999999999,53.2177,218.101,47.2115,144.6783,-0.011113,-0.00173192,0.0,0 STARLINK-4261,1 52868U 22062AQ  22283.58334491 -.00173192  00000-0 -11113-1 0  9998,2 52868  53.2177 218.1010 0001611  47.2115 144.6783 15.08895088  1307,6917.712,95.434,540.691,538.4630000000002,0.0
52868.0,STARLINK-4261,PAYLOAD,2022-10-10 22:00:01,15.0891289,0.0001468,53.2178,216.6044,50.7222,152.835,-0.015261,-0.00235784,0.0,0 STARLINK-4261,1 52868U 22062AQ  22283.91668981 -.00235784  00000-0 -15261-1 0  9993,2 52868  53.2178 216.6044 0001468  50.7222 152.8350 15.08912890  1308,6917.658,95.433,540.538,538.507,0.0
52868.0,STARLINK-4261,PAYLOAD,2022-10-11 06:00:00,15.0879446,0.0001781999999999,53.2178,215.1097,45.3529,169.7479,0.0026931,0.0004278,0.0,0 STARLINK-4261,1 52868U 22062AQ  22284.25001157  .00042780  00000-0  26931-2 0  9994,2 52868  53.2178 215.1097 0001782  45.3529 169.7479 15.08794460 18408,6918.02,95.44,541.117,538.6519999999998,0.0
52868.0,STARLINK-4261,PAYLOAD,2022-10-11 14:00:01,15.08738623,0.0001486999999999,53.2178,213.6128,49.5044,177.16299999999995,0.0097019999999999,0.00157148,0.0,0 STARLINK-4261,1 52868U 22062AQ  22284.58334491  .00157148  00000-0  97020-2 0  9992,2 52868  53.2178 213.6128 0001487  49.5044 177.1630 15.08738623  1308,6918.19,95.444,541.0840000000002,539.0269999999998,0.0
52868.0,STARLINK-4261,PAYLOAD,2022-10-11 22:00:00,15.08836391,0.0001496999999999,53.2175,212.1171,51.4549,186.755,4.7428e-05,4.67e-06,0.0,0 STARLINK-4261,1 52868U 22062AQ  22284.91667824  .00000467  00000-0  47428-4 0  9998,2 52868  53.2175 212.1171 0001497  51.4549 186.7550 15.08836391  1308,6917.891,95.438,540.7919999999998,538.721,0.0
52868.0,STARLINK-4261,PAYLOAD,2022-10-12 14:00:01,15.08873875,0.0001688,53.2181,209.1229,41.8669,219.5562,-0.0066575,-0.00104802,0.0,0 STARLINK-4261,1 52868U 22062AQ  22285.58334491 -.00104802  00000-0 -66575-2 0  9995,2 52868  53.2181 209.1229 0001688  41.8669 219.5562 15.08873875  1309,6917.776999999999,95.435,540.81,538.474,0.0
52868.0,STARLINK-4261,PAYLOAD,2022-10-12 22:00:00,15.08773127,0.000187,53.2176,207.6272,42.9698,230.051,0.0061017,0.00097994,0.0,0 STARLINK-4261,1 52868U 22062AQ  22285.91667824  .00097994  00000-0  61017-2 0  9998,2 52868  53.2176 207.6272 0001870  42.9698 230.0510 15.08773127  1301,6918.085,95.442,541.243,538.656,0.0
52868.0,STARLINK-4261,PAYLOAD,2022-10-13 06:00:00,15.0882574,0.0001878,53.218,206.1326,41.7112,242.9162,-0.00059128,-9.682e-05,0.0,0 STARLINK-4261,1 52868U 22062AQ  22286.25001157 -.00009682  00000-0 -59128-3 0  9997,2 52868  53.2180 206.1326 0001878  41.7112 242.9162 15.08825740 18702,6917.924,95.438,541.0880000000002,538.49,0.0
52868.0,STARLINK-4261,PAYLOAD,2022-10-13 14:00:01,15.08762777,0.0001793,53.218,204.6346,45.7519,250.4652,0.0064207,0.00103179,0.0,0 STARLINK-4261,1 52868U 22062AQ  22286.58334491  .00103179  00000-0  64207-2 0  9990,2 52868  53.2180 204.6346 0001793  45.7519 250.4652 15.08762777  1304,6918.116,95.442,541.222,538.741,0.0
52868.0,STARLINK-4261,PAYLOAD,2022-10-13 22:00:00,15.08836674,0.0001815,53.2176,203.1389,46.5106,261.2525,3.334e-05,2.42e-06,0.0,0 STARLINK-4261,1 52868U 22062AQ  22286.91667824  .00000242  00000-0  33340-4 0  9999,2 52868  53.2176 203.1389 0001815  46.5106 261.2525 15.08836674  1303,6917.891,95.438,541.011,538.5,0.0
